{
  "type": "FeatureCollection",
  "features": [
    {
      "type": "Feature",
      "properties": {
        "norad_id": 33886,
        "name": "IRIDIUM 33 DEB",
        "group": "iridium-33-debris",
        "lat": 23.369302853626074,
        "lon": -118.56861230059795,
        "alt_km": 765.0103637458742,
        "timestamp": "2025-12-22T18:58:53.817864+00:00",
        "meta_object_name": "IRIDIUM 33 DEB",
        "meta_object_id": "1997-051BF",
        "meta_epoch": "2025-12-22T06:53:02.836032",
        "meta_mean_motion": 14.36062568,
        "meta_eccentricity": 0.00131714,
        "meta_inclination": 86.3822,
        "meta_ra_of_asc_node": 63.2101,
        "meta_arg_of_pericenter": 207.5974,
        "meta_mean_anomaly": 224.7282,
        "meta_ephemeris_type": 0,
        "meta_classification_type": "U",
        "meta_norad_cat_id": 33886,
        "meta_element_set_no": 999,
        "meta_rev_at_epoch": 88189,
        "meta_bstar": 0.00017600062,
        "meta_mean_motion_dot": 5.32e-06,
        "meta_mean_motion_ddot": 0,
        "tle_line1": "1 33886U 97051BF  25356.28683838  .00000532  00000+0  17600-3 0  9993",
        "tle_line2": "2 33886  86.3822  63.2101 0013171 207.5974 224.7282 14.36062568881891"
      },
      "geometry": {
        "type": "Point",
        "coordinates": [
          -118.56861230059795,
          23.369302853626074
        ]
      }
    },
    {
      "type": "Feature",
      "properties": {
        "norad_id": 33887,
        "name": "IRIDIUM 33 DEB",
        "group": "iridium-33-debris",
        "lat": 44.79313484943837,
        "lon": 175.38125609791436,
        "alt_km": 761.5792006021593,
        "timestamp": "2025-12-22T18:58:53.817874+00:00",
        "meta_object_name": "IRIDIUM 33 DEB",
        "meta_object_id": "1997-051BG",
        "meta_epoch": "2025-12-21T18:06:57.603168",
        "meta_mean_motion": 14.37228506,
        "meta_eccentricity": 0.00053942,
        "meta_inclination": 86.3041,
        "meta_ra_of_asc_node": 359.5069,
        "meta_arg_of_pericenter": 190.9714,
        "meta_mean_anomaly": 346.844,
        "meta_ephemeris_type": 0,
        "meta_classification_type": "U",
        "meta_norad_cat_id": 33887,
        "meta_element_set_no": 999,
        "meta_rev_at_epoch": 88294,
        "meta_bstar": 0.00011880703,
        "meta_mean_motion_dot": 3.73e-06,
        "meta_mean_motion_ddot": 0,
        "tle_line1": "1 33887U 97051BG  25355.75483337  .00000373  00000+0  11881-3 0  9995",
        "tle_line2": "2 33887  86.3041 359.5069 0005394 190.9714 346.8440 14.37228506882940"
      },
      "geometry": {
        "type": "Point",
        "coordinates": [
          175.38125609791436,
          44.79313484943837
        ]
      }
    },
    {
      "type": "Feature",
      "properties": {
        "norad_id": 33953,
        "name": "IRIDIUM 33 DEB",
        "group": "iridium-33-debris",
        "lat": -73.57808180120867,
        "lon": 37.025915467121216,
        "alt_km": 725.8918245440218,
        "timestamp": "2025-12-22T18:58:53.817885+00:00",
        "meta_object_name": "IRIDIUM 33 DEB",
        "meta_object_id": "1997-051BN",
        "meta_epoch": "2025-12-22T04:44:25.619136",
        "meta_mean_motion": 14.55406947,
        "meta_eccentricity": 0.00178347,
        "meta_inclination": 86.3836,
        "meta_ra_of_asc_node": 49.6744,
        "meta_arg_of_pericenter": 73.9809,
        "meta_mean_anomaly": 345.1929,
        "meta_ephemeris_type": 0,
        "meta_classification_type": "U",
        "meta_norad_cat_id": 33953,
        "meta_element_set_no": 999,
        "meta_rev_at_epoch": 88441,
        "meta_bstar": 0.0010994661,
        "meta_mean_motion_dot": 4.805e-05,
        "meta_mean_motion_ddot": 0,
        "tle_line1": "1 33953U 97051BN  25356.19751874  .00004805  00000+0  10995-2 0  9990",
        "tle_line2": "2 33953  86.3836  49.6744 0017834  73.9809 345.1929 14.55406947884415"
      },
      "geometry": {
        "type": "Point",
        "coordinates": [
          37.025915467121216,
          -73.57808180120867
        ]
      }
    },
    {
      "type": "Feature",
      "properties": {
        "norad_id": 33960,
        "name": "IRIDIUM 33 DEB",
        "group": "iridium-33-debris",
        "lat": 82.16962732402635,
        "lon": 76.32585549962538,
        "alt_km": 601.1008736608437,
        "timestamp": "2025-12-22T18:58:53.817896+00:00",
        "meta_object_name": "IRIDIUM 33 DEB",
        "meta_object_id": "1997-051BV",
        "meta_epoch": "2025-12-22T06:09:23.968224",
        "meta_mean_motion": 14.8563682,
        "meta_eccentricity": 0.00072716,
        "meta_inclination": 86.2544,
        "meta_ra_of_asc_node": 285.0259,
        "meta_arg_of_pericenter": 45.0097,
        "meta_mean_anomaly": 75.6646,
        "meta_ephemeris_type": 0,
        "meta_classification_type": "U",
        "meta_norad_cat_id": 33960,
        "meta_element_set_no": 999,
        "meta_rev_at_epoch": 89008,
        "meta_bstar": 0.0034646151,
        "meta_mean_motion_dot": 0.00030136,
        "meta_mean_motion_ddot": 0,
        "tle_line1": "1 33960U 97051BV  25356.25652741  .00030136  00000+0  34646-2 0  9993",
        "tle_line2": "2 33960  86.2544 285.0259 0007271  45.0097  75.6646 14.85636820890087"
      },
      "geometry": {
        "type": "Point",
        "coordinates": [
          76.32585549962538,
          82.16962732402635
        ]
      }
    },
    {
      "type": "Feature",
      "properties": {
        "norad_id": 33966,
        "name": "IRIDIUM 33 DEB",
        "group": "iridium-33-debris",
        "lat": -24.31101165486016,
        "lon": -136.6528085158851,
        "alt_km": 728.4294375296295,
        "timestamp": "2025-12-22T18:58:53.817907+00:00",
        "meta_object_name": "IRIDIUM 33 DEB",
        "meta_object_id": "1997-051CB",
        "meta_epoch": "2025-12-22T05:06:20.316096",
        "meta_mean_motion": 14.49629498,
        "meta_eccentricity": 0.00084645,
        "meta_inclination": 86.3912,
        "meta_ra_of_asc_node": 41.9616,
        "meta_arg_of_pericenter": 158.4906,
        "meta_mean_anomaly": 270.3649,
        "meta_ephemeris_type": 0,
        "meta_classification_type": "U",
        "meta_norad_cat_id": 33966,
        "meta_element_set_no": 999,
        "meta_rev_at_epoch": 88579,
        "meta_bstar": 0.00046269479,
        "meta_mean_motion_dot": 1.798e-05,
        "meta_mean_motion_ddot": 0,
        "tle_line1": "1 33966U 97051CB  25356.21273514  .00001798  00000+0  46269-3 0  9999",
        "tle_line2": "2 33966  86.3912  41.9616 0008464 158.4906 270.3649 14.49629498885794"
      },
      "geometry": {
        "type": "Point",
        "coordinates": [
          -136.6528085158851,
          -24.31101165486016
        ]
      }
    },
    {
      "type": "Feature",
      "properties": {
        "norad_id": 34071,
        "name": "IRIDIUM 33 DEB",
        "group": "iridium-33-debris",
        "lat": -84.56600205864096,
        "lon": -124.32015406081254,
        "alt_km": 741.7276866199736,
        "timestamp": "2025-12-22T18:58:53.817918+00:00",
        "meta_object_name": "IRIDIUM 33 DEB",
        "meta_object_id": "1997-051CE",
        "meta_epoch": "2025-12-22T02:50:50.639424",
        "meta_mean_motion": 14.49504105,
        "meta_eccentricity": 0.00099182,
        "meta_inclination": 86.3448,
        "meta_ra_of_asc_node": 13.7514,
        "meta_arg_of_pericenter": 82.3168,
        "meta_mean_anomaly": 277.9162,
        "meta_ephemeris_type": 0,
        "meta_classification_type": "U",
        "meta_norad_cat_id": 34071,
        "meta_element_set_no": 999,
        "meta_rev_at_epoch": 88470,
        "meta_bstar": 0.00053057175,
        "meta_mean_motion_dot": 2.053e-05,
        "meta_mean_motion_ddot": 0,
        "tle_line1": "1 34071U 97051CE  25356.11864166  .00002053  00000+0  53057-3 0  9993",
        "tle_line2": "2 34071  86.3448  13.7514 0009918  82.3168 277.9162 14.49504105884700"
      },
      "geometry": {
        "type": "Point",
        "coordinates": [
          -124.32015406081254,
          -84.56600205864096
        ]
      }
    },
    {
      "type": "Feature",
      "properties": {
        "norad_id": 34077,
        "name": "IRIDIUM 33 DEB",
        "group": "iridium-33-debris",
        "lat": -55.08523121837002,
        "lon": 41.8823796178339,
        "alt_km": 681.3521452690311,
        "timestamp": "2025-12-22T18:58:53.817929+00:00",
        "meta_object_name": "IRIDIUM 33 DEB",
        "meta_object_id": "1997-051CL",
        "meta_epoch": "2025-12-22T03:06:20.172096",
        "meta_mean_motion": 14.64936285,
        "meta_eccentricity": 0.00091067,
        "meta_inclination": 86.3848,
        "meta_ra_of_asc_node": 47.3707,
        "meta_arg_of_pericenter": 8.9651,
        "meta_mean_anomaly": 49.6074,
        "meta_ephemeris_type": 0,
        "meta_classification_type": "U",
        "meta_norad_cat_id": 34077,
        "meta_element_set_no": 999,
        "meta_rev_at_epoch": 88470,
        "meta_bstar": 0.0012796439,
        "meta_mean_motion_dot": 6.872e-05,
        "meta_mean_motion_ddot": 0,
        "tle_line1": "1 34077U 97051CL  25356.12940014  .00006872  00000+0  12796-2 0  9994",
        "tle_line2": "2 34077  86.3848  47.3707 0009106   8.9651  49.6074 14.64936285884708"
      },
      "geometry": {
        "type": "Point",
        "coordinates": [
          41.8823796178339,
          -55.08523121837002
        ]
      }
    }
  ]
}